[{"OBJECT_NAME":"FLYING LAPTOP","OBJECT_ID":"2017-042G","EPOCH":"2026-03-09T23:28:27.762240","MEAN_MOTION":15.00523488,"ECCENTRICITY":0.00192138,"INCLINATION":97.4274,"RA_OF_ASC_NODE":228.6392,"ARG_OF_PERICENTER":94.5564,"MEAN_ANOMALY":265.7856,"EPHEMERIS_TYPE":0,"CLASSIFICATION_TYPE":"U","NORAD_CAT_ID":42831,"ELEMENT_SET_NO":999,"REV_AT_EPOCH":47157,"BSTAR":0.00042943592,"MEAN_MOTION_DOT":5.379e-5,"MEAN_MOTION_DDOT":0},{"OBJECT_NAME":"STARLINK-5981","OBJECT_ID":"2023-058J","EPOCH":"2026-03-09T22:14:54.545280","MEAN_MOTION":15.01258925,"ECCENTRICITY":0.00032383,"INCLINATION":97.6037,"RA_OF_ASC_NODE":70.4064,"ARG_OF_PERICENTER":76.6419,"MEAN_ANOMALY":283.5166,"EPHEMERIS_TYPE":0,"CLASSIFICATION_TYPE":"U","NORAD_CAT_ID":56325,"ELEMENT_SET_NO":999,"REV_AT_EPOCH":15816,"BSTAR":3.306275e-6,"MEAN_MOTION_DOT":-1.6e-7,"MEAN_MOTION_DDOT":0}]
